NORAD_CAT_ID,OBJECT_NAME,OBJECT_TYPE,EPOCH,MEAN_MOTION,ECCENTRICITY,INCLINATION,RA_OF_ASC_NODE,ARG_OF_PERICENTER,MEAN_ANOMALY,BSTAR,MEAN_MOTION_DOT,MEAN_MOTION_DDOT,TLE_LINE0,TLE_LINE1,TLE_LINE2,SEMIMAJOR_AXIS,PERIOD,APOGEE,PERIGEE,DECAYED
53621.0,STARLINK-4608,PAYLOAD,2024-01-09 11:58:06,15.0883744,0.0001715,53.2162,181.379,66.2744,293.8427,4.5045e-05,4.29e-06,0.0,0 STARLINK-4608,1 53621U 22104AK  24009.49868346  .00000429  00000-0  45045-4 0  9996,2 53621  53.2162 181.3790 0001715  66.2744 293.8427 15.08837440 76345,6917.888,95.438,540.94,538.567,0.0
53621.0,STARLINK-4608,PAYLOAD,2024-01-09 21:30:24,15.08839836,0.0001767,53.216,179.595,62.3847,297.7325,5.8564e-05,6.44e-06,0.0,0 STARLINK-4608,1 53621U 22104AK  24009.89612235  .00000644  00000-0  58564-4 0  9993,2 53621  53.2160 179.5950 0001767  62.3847 297.7325 15.08839836 76406,6917.881,95.438,540.968,538.524,0.0
53621.0,STARLINK-4608,PAYLOAD,2024-01-10 10:13:30,15.08833713,0.0001635,53.2164,177.2138,70.6076,289.5093,5.439e-06,-2.01e-06,0.0,0 STARLINK-4608,1 53621U 22104AK  24010.42604896 -.00000201  00000-0  54390-5 0  9992,2 53621  53.2164 177.2138 0001635  70.6076 289.5093 15.08833713 75917,6917.9,95.438,540.896,538.634,0.0
53621.0,STARLINK-4608,PAYLOAD,2024-01-11 14:50:26,15.08841398,0.0001627,53.2159,171.8633,75.7768,284.3405,8.1154e-05,1.004e-05,0.0,0 STARLINK-4608,1 53621U 22104AK  24011.61836365  .00001004  00000-0  81154-4 0  9990,2 53621  53.2159 171.8633 0001627  75.7768 284.3405 15.08841398 76667,6917.876,95.437,540.867,538.616,0.0
53621.0,STARLINK-4608,PAYLOAD,2024-01-11 19:36:35,15.08850047,0.0001813,53.2159,170.9709,75.2555,284.8638,7.2346e-05,8.64e-06,0.0,0 STARLINK-4608,1 53621U 22104AK  24011.81707866  .00000864  00000-0  72346-4 0  9991,2 53621  53.2159 170.9709 0001813  75.2555 284.8638 15.08850047 76122,6917.85,95.437,540.969,538.46,0.0
53621.0,STARLINK-4608,PAYLOAD,2024-01-12 14:41:14,15.0883399,0.000149,53.2158,167.4018,88.9772,271.1391,-1.7113e-05,-5.6e-06,0.0,0 STARLINK-4608,1 53621U 22104AK  24012.61197235 -.00000560  00000-0 -17113-4 0  9999,2 53621  53.2158 167.4018 0001490  88.9772 271.1391 15.08833990 76817,6917.899,95.438,540.795,538.733,0.0
53621.0,STARLINK-4608,PAYLOAD,2024-01-12 19:27:23,15.08839955,0.0001681,53.216,166.5114,69.4005,290.7167,7.1568e-05,8.51e-06,0.0,0 STARLINK-4608,1 53621U 22104AK  24012.81068879  .00000851  00000-0  71568-4 0  9997,2 53621  53.2160 166.5114 0001681  69.4005 290.7167 15.08839955 76277,6917.881,95.438,540.908,538.583,0.0
53621.0,STARLINK-4608,PAYLOAD,2024-01-13 09:45:51,15.08839881,0.0001587,53.2158,163.8352,74.474,285.6427,1.0324e-05,-1.24e-06,0.0,0 STARLINK-4608,1 53621U 22104AK  24013.40685167 -.00000124  00000-0  10324-4 0  9995,2 53621  53.2158 163.8352 0001587  74.4740 285.6427 15.08839881 76938,6917.881,95.438,540.844,538.648,0.0
53621.0,STARLINK-4608,PAYLOAD,2024-01-13 19:18:09,15.08850229,0.0001459,53.2158,162.0517,84.9053,275.2106,8.4636e-05,1.06e-05,0.0,0 STARLINK-4608,1 53621U 22104AK  24013.80428126  .00001060  00000-0  84636-4 0  9995,2 53621  53.2158 162.0517 0001459  84.9053 275.2106 15.08850229 76425,6917.849,95.437,540.723,538.705,0.0
53621.0,STARLINK-4608,PAYLOAD,2024-01-14 14:22:48,15.08841291,0.0001573,53.2174,158.4792,76.4814,283.6353,8.7443e-05,1.104e-05,0.0,0 STARLINK-4608,1 53621U 22104AK  24014.59916923  .00001104  00000-0  87443-4 0  9997,2 53621  53.2174 158.4792 0001573  76.4814 283.6353 15.08841291 77118,6917.876,95.437,540.83,538.653,0.0
53621.0,STARLINK-4608,PAYLOAD,2024-01-14 15:58:11,15.088421,0.0001603,53.2167,158.1824,81.4742,278.6431,8.902e-05,1.129e-05,0.0,0 STARLINK-4608,1 53621U 22104AK  24014.66540673  .00001129  00000-0  89020-4 0  9990,2 53621  53.2167 158.1824 0001603  81.4742 278.6431 15.08842100 76551,6917.874,95.437,540.848,538.63,0.0
53621.0,STARLINK-4608,PAYLOAD,2024-01-15 14:13:35,15.08845203,0.0001468,53.2162,154.0226,74.3239,285.7915,4.4584e-05,4.22e-06,0.0,0 STARLINK-4608,1 53621U 22104AK  24015.59276815  .00000422  00000-0  44584-4 0  9998,2 53621  53.2162 154.0226 0001468  74.3239 285.7915 15.08845203 77260,6917.864,95.437,540.745,538.714,0.0
53621.0,STARLINK-4608,PAYLOAD,2024-01-15 15:48:58,15.08847806,0.0001502,53.2163,153.7254,71.0036,289.1119,6.9896e-05,8.25e-06,0.0,0 STARLINK-4608,1 53621U 22104AK  24015.65900600  .00000825  00000-0  69896-4 0  9991,2 53621  53.2163 153.7254 0001502  71.0036 289.1119 15.08847806 77272,6917.857,95.437,540.761,538.682,0.0
53621.0,STARLINK-4608,PAYLOAD,2024-01-16 12:28:59,15.08832599,0.0001387,53.216,149.8607,77.093,283.0217,-3.4962e-05,-8.44e-06,0.0,0 STARLINK-4608,1 53621U 22104AK  24016.52013879 -.00000844  00000-0 -34962-4 0  9990,2 53621  53.2160 149.8607 0001387  77.0930 283.0217 15.08832599 76833,6917.903,95.438,540.728,538.808,0.0
53621.0,STARLINK-4608,PAYLOAD,2024-01-16 14:04:23,15.08775151,0.0001714,53.2159,149.5646,75.1901,284.9281,0.00078332,0.00012179,0.0,0 STARLINK-4608,1 53621U 22104AK  24016.58638876  .00012179  00000-0  78332-3 0  9996,2 53621  53.2159 149.5646 0001714  75.1901 284.9281 15.08775151 77418,6918.079,95.442,541.129,538.758,0.0
53621.0,STARLINK-4608,PAYLOAD,2024-01-16 15:39:45,15.08837284,0.0001411,53.2158,149.2662,81.2821,278.8331,1.6603e-05,-2.4e-07,0.0,0 STARLINK-4608,1 53621U 22104AK  24016.65261461 -.00000024  00000-0  16603-4 0  9997,2 53621  53.2158 149.2662 0001411  81.2821 278.8331 15.08837284 77420,6917.889,95.438,540.73,538.778,0.0
53621.0,STARLINK-4608,PAYLOAD,2024-01-17 13:55:09,15.08841978,0.0001274,53.216,145.101,92.6759,267.4379,3.4736e-06,-2.33e-06,0.0,0 STARLINK-4608,1 53621U 22104AK  24017.57997494 -.00000233  00000-0  34736-5 0  9991,2 53621  53.2160 145.1010 0001274  92.6759 267.4379 15.08841978 77564,6917.874,95.437,540.621,538.858,0.0
53621.0,STARLINK-4608,PAYLOAD,2024-01-18 12:10:34,15.08832611,0.0001306,53.216,140.941,94.1246,265.9895,0.00014009,1.942e-05,0.0,0 STARLINK-4608,1 53621U 22104AK  24018.50734079  .00001942  00000-0  14009-3 0  9999,2 53621  53.2160 140.9410 0001306  94.1246 265.9895 15.08832611 77138,6917.903,95.438,540.671,538.864,0.0
53621.0,STARLINK-4608,PAYLOAD,2024-01-18 13:45:57,15.08834944,0.0001258,53.2162,140.6436,85.8848,274.2288,0.00016024,2.263e-05,0.0,0 STARLINK-4608,1 53621U 22104AK  24018.57357975  .00002263  00000-0  16024-3 0  9998,2 53621  53.2162 140.6436 0001258  85.8848 274.2288 15.08834944 77710,6917.896,95.438,540.631,538.891,0.0
53621.0,STARLINK-4608,PAYLOAD,2024-01-18 15:21:20,15.08839303,0.0001275,53.2162,140.3454,91.2897,268.8241,0.00020006,2.897e-05,0.0,0 STARLINK-4608,1 53621U 22104AK  24018.63981630  .00002897  00000-0  20006-3 0  9994,2 53621  53.2162 140.3454 0001275  91.2897 268.8241 15.08839303 77151,6917.883,95.438,540.63,538.865,0.0
53621.0,STARLINK-4608,PAYLOAD,2024-01-19 12:01:23,15.08743844,0.000173,53.2182,136.4802,109.32,250.798,0.0015234,0.00023976,0.0,0 STARLINK-4608,1 53621U 22104AK  24019.50096260  .00023976  00000-0  15234-2 0  9994,2 53621  53.2182 136.4802 0001730 109.3200 250.7980 15.08743844 77289,6918.174,95.444,541.236,538.842,0.0
53621.0,STARLINK-4608,PAYLOAD,2024-01-19 13:36:46,15.08746744,0.000172,53.2182,136.183,107.8435,252.2744,0.0015142,0.00023831,0.0,0 STARLINK-4608,1 53621U 22104AK  24019.56720414  .00023831  00000-0  15142-2 0  9993,2 53621  53.2182 136.1830 0001720 107.8435 252.2744 15.08746744 77860,6918.165,95.443,541.22,538.841,0.0
53621.0,STARLINK-4608,PAYLOAD,2024-01-19 16:47:30,15.08848489,0.0001282,53.218,135.5878,74.5756,285.5378,0.00015524,2.184e-05,0.0,0 STARLINK-4608,1 53621U 22104AK  24019.69965310  .00002184  00000-0  15524-3 0  9996,2 53621  53.2180 135.5878 0001282  74.5756 285.5378 15.08848489 77313,6917.854,95.437,540.606,538.833,0.0
53621.0,STARLINK-4608,PAYLOAD,2024-01-20 11:52:08,15.08838958,0.0001654,53.2182,132.0192,100.6834,259.4345,1.4376e-05,-5.9e-07,0.0,0 STARLINK-4608,1 53621U 22104AK  24020.49454355 -.00000059  00000-0  14376-4 0  9993,2 53621  53.2182 132.0192 0001654 100.6834 259.4345 15.08838958 77434,6917.884,95.438,540.893,538.604,0.0
53621.0,STARLINK-4608,PAYLOAD,2024-01-20 13:27:31,15.08839394,0.0001599,53.2183,131.7222,95.1704,264.9471,2.1352e-05,5.2e-07,0.0,0 STARLINK-4608,1 53621U 22104AK  24020.56078341  .00000052  00000-0  21352-4 0  9992,2 53621  53.2183 131.7222 0001599  95.1704 264.9471 15.08839394 78018,6917.882,95.438,540.853,538.641,0.0
53621.0,STARLINK-4608,PAYLOAD,2024-01-20 16:38:17,15.08844287,0.0001659,53.2187,131.1273,103.3484,256.7693,5.6342e-05,6.09e-06,0.0,0 STARLINK-4608,1 53621U 22104AK  24020.69325906  .00000609  00000-0  56342-4 0  9993,2 53621  53.2187 131.1273 0001659 103.3484 256.7693 15.08844287 78030,6917.867,95.437,540.88,538.585,0.0
53621.0,STARLINK-4608,PAYLOAD,2024-01-21 16:29:03,15.08856087,0.000175,53.2171,126.6601,132.6877,227.4263,9.2852e-05,1.191e-05,0.0,0 STARLINK-4608,1 53621U 22104AK  24021.68684699  .00001191  00000-0  92852-4 0  9993,2 53621  53.2171 126.6601 0001750 132.6877 227.4263 15.08856087 77612,6917.831,95.437,540.907,538.486,0.0
53621.0,STARLINK-4608,PAYLOAD,2024-01-22 11:33:42,15.0884201,0.0001535,53.2192,123.088,109.3491,250.7667,7.7734e-05,9.49e-06,0.0,0 STARLINK-4608,1 53621U 22104AK  24022.48173800  .00000949  00000-0  77734-4 0  9991,2 53621  53.2192 123.0880 0001535 109.3491 250.7667 15.08842010 77730,6917.874,95.437,540.801,538.677,0.0
53621.0,STARLINK-4608,PAYLOAD,2024-01-22 13:09:05,15.08843996,0.0001428,53.2171,122.7959,112.1891,247.9253,7.6674e-05,9.33e-06,0.0,0 STARLINK-4608,1 53621U 22104AK  24022.54797652  .00000933  00000-0  76674-4 0  9990,2 53621  53.2171 122.7959 0001428 112.1891 247.9253 15.08843996 78315,6917.868,95.437,540.721,538.745,0.0
53621.0,STARLINK-4608,PAYLOAD,2024-01-23 12:59:51,15.08852763,0.0001413,53.2169,118.3368,92.3065,267.8089,3.9172e-05,3.36e-06,0.0,0 STARLINK-4608,1 53621U 22104AK  24023.54157238  .00000336  00000-0  39172-4 0  9990,2 53621  53.2169 118.3368 0001413  92.3065 267.8089 15.08852763 77895,6917.841,95.437,540.684,538.729,0.0
